{
    "links": {
        "self": "http://www.neowsapp.com/rest/v1/neo/3752100?api_key=iIulBulltgU6a56xZRHN4H3l9WmuAYTsLGpBGhQ2"
    },
    "id": "3752100",
    "neo_reference_id": "3752100",
    "name": "(2016 GF241)",
    "designation": "2016 GF241",
    "nasa_jpl_url": "http://ssd.jpl.nasa.gov/sbdb.cgi?sstr=3752100",
    "absolute_magnitude_h": 23.3,
    "estimated_diameter": {
        "kilometers": {
            "estimated_diameter_min": 0.058150704,
            "estimated_diameter_max": 0.130028927
        },
        "meters": {
            "estimated_diameter_min": 58.1507039646,
            "estimated_diameter_max": 130.0289270043
        },
        "miles": {
            "estimated_diameter_min": 0.0361331611,
            "estimated_diameter_max": 0.0807962044
        },
        "feet": {
            "estimated_diameter_min": 190.7831555951,
            "estimated_diameter_max": 426.6041048727
        }
    },
    "is_potentially_hazardous_asteroid": false,
    "close_approach_data": [
        {
            "close_approach_date": "2011-09-25",
            "close_approach_date_full": "2011-Sep-25 15:45",
            "epoch_date_close_approach": 1316965500000,
            "relative_velocity": {
                "kilometers_per_second": "19.6981283573",
                "kilometers_per_hour": "70913.2620862642",
                "miles_per_hour": "44062.7433224345"
            },
            "miss_distance": {
                "astronomical": "0.3024495253",
                "lunar": "117.6528653417",
                "kilometers": "45245804.767391111",
                "miles": "28114439.3985788918"
            },
            "orbiting_body": "Earth"
        },
        {
            "close_approach_date": "2015-02-17",
            "close_approach_date_full": "2015-Feb-17 01:53",
            "epoch_date_close_approach": 1424137980000,
            "relative_velocity": {
                "kilometers_per_second": "14.9242179098",
                "kilometers_per_hour": "53727.1844753088",
                "miles_per_hour": "33383.9830424495"
            },
            "miss_distance": {
                "astronomical": "0.0874492832",
                "lunar": "34.0177711648",
                "kilometers": "13082226.499746784",
                "miles": "8128918.6039782592"
            },
            "orbiting_body": "Mars"
        },
        {
            "close_approach_date": "2016-04-13",
            "close_approach_date_full": "2016-Apr-13 06:41",
            "epoch_date_close_approach": 1460529660000,
            "relative_velocity": {
                "kilometers_per_second": "16.5030324602",
                "kilometers_per_hour": "59410.9168568201",
                "miles_per_hour": "36915.6333102836"
            },
            "miss_distance": {
                "astronomical": "0.1731313684",
                "lunar": "67.3481023076",
                "kilometers": "25900083.942825308",
                "miles": "16093565.8935049304"
            },
            "orbiting_body": "Earth"
        },
        {
            "close_approach_date": "2016-09-25",
            "close_approach_date_full": "2016-Sep-25 21:58",
            "epoch_date_close_approach": 1474840680000,
            "relative_velocity": {
                "kilometers_per_second": "14.9735185472",
                "kilometers_per_hour": "53904.6667700057",
                "miles_per_hour": "33494.2636382849"
            },
            "miss_distance": {
                "astronomical": "0.3244174138",
                "lunar": "126.1983739682",
                "kilometers": "48532154.095388606",
                "miles": "30156482.1802145228"
            },
            "orbiting_body": "Earth"
        },
        {
            "close_approach_date": "2021-04-03",
            "close_approach_date_full": "2021-Apr-03 15:33",
            "epoch_date_close_approach": 1617463980000,
            "relative_velocity": {
                "kilometers_per_second": "24.542255251",
                "kilometers_per_hour": "88352.1189036205",
                "miles_per_hour": "54898.5707709747"
            },
            "miss_distance": {
                "astronomical": "0.434844942",
                "lunar": "169.154682438",
                "kilometers": "65051877.10347354",
                "miles": "40421362.068633252"
            },
            "orbiting_body": "Earth"
        }
    ],
    "orbital_data": {
        "orbit_id": "3",
        "orbit_determination_date": "2017-04-06 08:26:26",
        "first_observation_date": "2016-04-05",
        "last_observation_date": "2016-04-17",
        "data_arc_in_days": 12,
        "observations_used": 35,
        "orbit_uncertainty": "8",
        "minimum_orbit_intersection": ".168498",
        "jupiter_tisserand_invariant": "4.594",
        "epoch_osculation": "2457488.5",
        "eccentricity": ".3199339830714921",
        "semi_major_axis": "1.391996504597654",
        "inclination": "29.20166135208637",
        "ascending_node_longitude": "194.028802068476",
        "orbital_period": "599.8679293921136",
        "perihelion_distance": ".9466495184601317",
        "perihelion_argument": "83.34832225394685",
        "aphelion_distance": "1.837343490735176",
        "perihelion_time": "2457561.789659006984",
        "mean_anomaly": "316.0165230549144",
        "mean_motion": ".6001320996853626",
        "equinox": "J2000",
        "orbit_class": {
            "orbit_class_type": "APO",
            "orbit_class_description": "Near-Earth asteroid orbits which cross the Earth’s orbit similar to that of 1862 Apollo",
            "orbit_class_range": "a (semi-major axis) > 1.0 AU; q (perihelion) < 1.017 AU"
        }
    },
    "is_sentry_object": false
}